{
    "links": {
        "self": "http://www.neowsapp.com/rest/v1/neo/3399122?api_key=iIulBulltgU6a56xZRHN4H3l9WmuAYTsLGpBGhQ2"
    },
    "id": "3399122",
    "neo_reference_id": "3399122",
    "name": "(2008 AH4)",
    "designation": "2008 AH4",
    "nasa_jpl_url": "http://ssd.jpl.nasa.gov/sbdb.cgi?sstr=3399122",
    "absolute_magnitude_h": 21.6,
    "estimated_diameter": {
        "kilometers": {
            "estimated_diameter_min": 0.1272198785,
            "estimated_diameter_max": 0.2844722965
        },
        "meters": {
            "estimated_diameter_min": 127.2198785394,
            "estimated_diameter_max": 284.4722965033
        },
        "miles": {
            "estimated_diameter_min": 0.0790507431,
            "estimated_diameter_max": 0.1767628354
        },
        "feet": {
            "estimated_diameter_min": 417.3880663071,
            "estimated_diameter_max": 933.3080892598
        }
    },
    "is_potentially_hazardous_asteroid": false,
    "close_approach_data": [
        {
            "close_approach_date": "2008-01-15",
            "close_approach_date_full": "2008-Jan-15 15:01",
            "epoch_date_close_approach": 1200409260000,
            "relative_velocity": {
                "kilometers_per_second": "39.1442987558",
                "kilometers_per_hour": "140919.4755209034",
                "miles_per_hour": "87561.8818868636"
            },
            "miss_distance": {
                "astronomical": "0.1282766361",
                "lunar": "49.8996114429",
                "kilometers": "19189911.531325107",
                "miles": "11924058.0996441966"
            },
            "orbiting_body": "Earth"
        }
    ],
    "orbital_data": {
        "orbit_id": "9",
        "orbit_determination_date": "2017-04-06 09:04:46",
        "first_observation_date": "2008-01-10",
        "last_observation_date": "2008-01-16",
        "data_arc_in_days": 6,
        "observations_used": 35,
        "orbit_uncertainty": "9",
        "minimum_orbit_intersection": ".0904708",
        "jupiter_tisserand_invariant": "2.663",
        "epoch_osculation": "2454479.5",
        "eccentricity": ".6369682986049595",
        "semi_major_axis": "2.294224548483655",
        "inclination": "67.31014304048294",
        "ascending_node_longitude": "117.2373547350618",
        "orbital_period": "1269.265017575927",
        "perihelion_distance": ".8328762412182898",
        "perihelion_argument": "66.32717178160355",
        "aphelion_distance": "3.75557285574902",
        "perihelion_time": "2454524.484145049217",
        "mean_anomaly": "347.2412049544654",
        "mean_motion": ".2836287103283889",
        "equinox": "J2000",
        "orbit_class": {
            "orbit_class_type": "APO",
            "orbit_class_description": "Near-Earth asteroid orbits which cross the Earth’s orbit similar to that of 1862 Apollo",
            "orbit_class_range": "a (semi-major axis) > 1.0 AU; q (perihelion) < 1.017 AU"
        }
    },
    "is_sentry_object": false
}